X,Y,NAME,LAYER,THEME,IMAGE_,ADDRESS,PHONE,VOUCHERS,PRIORITY_LEVEL,DESCRIPTION,EMAIL_PHONE,DAY,SEASONOPEN,SEASONCLOSE,WEB_URL,WEB_URL2,STEWARD,SOURCE,LAST_UPDAT,OBJECTID,XCOORD,YCOORD,MAR_ID,SE_ANNO_CAD_DATA,GIS_ID,GLOBALID,CREATOR,CREATED,EDITOR,EDITED,LATITUDE,LONGITUDE
-77.0751109184115,38.9651662188759,Chevy Chase/Broad Branch Farmers' Market,Farmers Market,Local Business & Food,,5601 Connecticut Ave. NW,,,,Locally grown fresh fruits and vegetables. Saturday. WIC and Senior Nutrition coupons accepted.,jennifer.guillaume@dc.gov _ 535-2252,Saturday,YearRound,YearRound,http://chevychasefarmersmarket.org/,,Jen,http://www.dcfoodfinder.org/,Fall 2017,1,393490.74,144141.13,263959,,FarmersMarketPt_9,{BA7F2149-421B-4053-9C2F-25BD6C2062D6},,,DCGIS,2018/01/03 16:47:52+00,38.96515875,-77.07510862
-77.0331344165924,38.9558294014263,14th & Kennedy Farmers' Market,Farmers Market,Local Business & Food,,5425 14th St NW,,"Accepts SNAP, WIC and senior farmers market nutrition program benefits.",,,jennifer.guillaume@dc.gov _ 535-2252,Saturday,April,November,http://freshvistafarmersmarkets.com/,,Jen,http://www.dcfoodfinder.org/,Fall 2017,2,397128.24,143102.5,304708,,FarmersMarketPt_10,{81DB3732-F194-4E23-BD85-4C01FFBA5870},,,DCGIS,2018/01/03 16:47:52+00,38.95582194,-77.03313213
-77.0699673021481,38.9470039939949,New Morning Farmers Market at the Sheridan School,Farmers Market,Local Business & Food,,3600 Alton Place NW,814.448.3904,"Accepts WIC, senior farmers market nutrition program and Produce Plus benefits.",1,Locally grown fresh fruits and vegetables. Saturday. WIC and Senior Nutrition coupons accepted.,jennifer.guillaume@dc.gov _ 535-2252,"Tuesday, Saturday",YearRound,,http://www.newmorningfarm.net/,,Jen,http://www.dcfoodfinder.org/,Fall 2017,3,393934.964500017,142124.603300001,,,FarmersMarketPt_11,{A796CC2A-E688-4F90-8628-6B1B98172BC2},,,DCGIS,2018/01/03 16:49:14+00,38.9469962,-77.06996499
-77.0644072747944,38.9441282945027,UDC Farmers Market,Farmers Market,Local Business & Food,,4200 Connecticut Ave NW,202-274-7148,"Accepts SNAP, WIC and senior farmers market nutrition program benefits; distributes Produce Plus checks.",,Locally grown fresh fruits and vegetables. July-Nov. Saturday.,jennifer.guillaume@dc.gov _ 535-2252,Saturday,May,November,https://www.udc.edu/event/farmers-market/,,Jen,http://www.dcfoodfinder.org/,Fall 2017,4,394416.72,141805.02,297694,,FarmersMarketPt_12,{0EB6EBBC-82CC-40A2-B5D1-E9B94D306B24},,,DCGIS,2018/01/03 16:47:52+00,38.9441205,-77.06440497
-77.0247745938037,38.9413712924505,Petworth Community Market,Farmers Market,Local Business & Food,,4121 9th St NW,,"Accepts SNAP, WIC and senior farmers market nutrition program benefits; Matching dollars for SNAP and WIC customers; distributes Produce Plus checks.",,,jennifer.guillaume@dc.gov _ 535-2252,Saturday,May,November,https://petworthcmarket.wordpress.com/,,Jen,http://www.dcfoodfinder.org/,Fall 2017,5,397852.4,141497.29,252482,,FarmersMarketPt_13,{77E47183-0DCC-4E49-BC54-56780B300A2B},,,DCGIS,2018/01/03 16:47:52+00,38.94136383,-77.02477231
-76.978597782537,38.9368039428738,Arcadia's Mobile Market at Perry Street Prep,Farmers Market,Local Business & Food,,1800 Perry St NE,,,,,jennifer.guillaume@dc.gov _ 535-2252,Thursday,May,October,http://arcadiafood.org/,,Jen,http://www.dcfoodfinder.org/,Fall 2017,6,401855.75,140990.2,294529,,FarmersMarketPt_14,{C55A1C5A-EA8D-4102-B7B3-2AF741225F56},,,DCGIS,2018/01/03 16:47:52+00,38.93679648,-76.97859551
-76.9925747449232,38.9345943985624,Brookland Farmers' Market,Farmers Market,Local Business & Food,,1000 Otis St NE,202-526-4848,"Accepts SNAP, WIC and EBT; distributes Produce Plus checks.",1,Locally grown fresh fruits and vegetables. WIC and Senior Nutrition coupons accepted.,jennifer.guillaume@dc.gov _ 535-2252,Tuesday,June,October,http://lickingcreekbendfarm.com/,,Jen,http://www.dcfoodfinder.org/,Fall 2017,7,400643.98,140744.73,76151,,FarmersMarketPt_15,{9A23CB04-7DA8-4834-8C9D-F4DA978D59CD},,,DCGIS,2018/01/03 16:47:52+00,38.93458694,-76.99257247
-77.0584161057319,38.9343525756606,Cleveland Park Saturday Farmers' Market,Farmers Market,Local Business & Food,,3400 Connecticut Ave NW,,,,,jennifer.guillaume@dc.gov _ 535-2252,Saturday,June,,,,Jen,http://www.dcfoodfinder.org/,Fall 2017,8,394935.4,140719.48,220980,,FarmersMarketPt_16,{E4319D1F-A49E-4523-9649-027BAAF9BE32},,,DCGIS,2018/01/03 16:47:52+00,38.93434512,-77.05841381
-76.9950085085725,38.9328407911034,Brookland's Monroe Street Farmers' Market,Farmers Market,Local Business & Food,,716 Monroe St NE,,"Accepts SNAP, WIC and senior farmers market nutrition program benefits; doubles SNAP, WIC, and senior farmers market nutrition program checks; distributes Produce Plus checks.",,,jennifer.guillaume@dc.gov _ 535-2252,Saturday,April,December,http://www.community-foodworks.org/farmers-markets,,Jen,http://www.dcfoodfinder.org/,Fall 2017,9,400432.98,140550.05,309744,,FarmersMarketPt_17,{30120097-A8A1-42B0-A5E7-1709716269E8},,,DCGIS,2018/01/03 16:47:52+00,38.93283333,-76.99500622
-77.0385285240206,38.9313361316121,Mount Pleasant Farmers' Market,Farmers Market,Local Business & Food,farmsmkt_mtpleasant.jpg,3200 Mt Pleasant St NW,,"Accepts WIC and senior farmers market nutrition program benefits; distributes Produce Plus checks.",1,Locally grown fresh fruits and vegetables. May-Nov. Sat. WIC and Senior Nutrition coupons accepted.,jennifer.guillaume@dc.gov _ 535-2252,Saturday,April,,http://mtpfm.org/,,Jen,http://www.dcfoodfinder.org/,Fall 2017,10,396659.554000013,140383.713,,,FarmersMarketPt_18,{91E7798E-CF98-4F0E-B92E-E7808F667419},,,DCGIS,2018/01/03 16:49:14+00,38.93132834,-77.03852623
-77.0318532533954,38.9298582294063,Columbia Heights Farmers' Market,Farmers Market,Local Business & Food,,1375 Kenyon St NW,,"Accepts SNAP, WIC and senior farmers market nutrition program benefits; $10 matching prgram for nutrition assistance customers; distributes Produce Plus checks.",,,jennifer.guillaume@dc.gov _ 535-2252,"Wednesday, Saturday",April,December,http://community-foodworks.org/farmers-markets,,Jen,http://www.dcfoodfinder.org/,Fall 2017,11,397238.28,140219.43,297618,,FarmersMarketPt_19,{59A59CBF-B15A-4D6B-B659-B217BE298FD1},,,DCGIS,2018/01/03 16:47:52+00,38.92985077,-77.03185097
-77.0605693476439,38.928249880716,Twin Springs Maret School Market,Farmers Market,Local Business & Food,farmsmkt_twinsprings.jpg,3000 Cathedral Ave. NW,(717) 334-4582,Accepts WIC and senior farmers market nutrition program benefits.,,Locally grown fresh fruits and vegetables. Summer-Dec. Saturday.,jennifer.guillaume@dc.gov _ 535-2252,Saturday,YearRound,YearRound,http://www.twinspringsfruitfarm.com/,,Jen,http://www.dcfoodfinder.org/,Fall 2017,12,394748.26,140042.15,220176,,FarmersMarketPt_20,{6ECF675E-01CD-4F79-8285-35C33B64D8B0},,,DCGIS,2018/01/03 16:47:52+00,38.92824242,-77.06056706
-77.0137538425946,38.9276870643592,Arcadia's Mobile Market at Children's National Medical Center WIC Clinic,Farmers Market,Local Business & Food,,"111 Michigan Ave., NW",,"Accepts SNAP, WIC and senior farmers market nutrition program; matching program for voucher customers; distributes Produce Plus checks.",,,jennifer.guillaume@dc.gov _ 535-2252,Wednesday,May,November,http://arcadiafood.org/,,Jen,http://www.dcfoodfinder.org/,Fall 2017,13,398807.6,139978.02,243365,,FarmersMarketPt_21,{3CDEBEE1-C2E9-4570-9820-8D0153B4F443},,,DCGIS,2018/01/03 16:47:52+00,38.92767927,-77.01375155
-76.9974999317408,38.923907596754,Arcadia's Mobile Market at Edgewood Commons,Farmers Market,Local Business & Food,,601 Edgewood St NE,,"Accepts SNAP, WIC and senior farmers market nutrition program; matching program for voucher customers; distributes Produce Plus checks.",,,jennifer.guillaume@dc.gov _ 535-2252,Friday,May,November,http://arcadiafood.org/,,Jen,http://www.dcfoodfinder.org/,Fall 2017,14,400216.99,139558.38,289571,,FarmersMarketPt_22,{DFE82198-5DF7-42DE-93B0-7D5227A79C57},,,DCGIS,2018/01/03 16:47:52+00,38.92390014,-76.99749766
-77.0422948523335,38.922378193063,Adams Morgan Farmers' Market,Farmers Market,Local Business & Food,,2475 18th St NW,301-587-2248,"Accepts SNAP, WIC and EBT; distributes Produce Plus checks.",,Locally grown fresh fruits and vegetables. May-Dec. Saturday. WIC and Senior Nutrition coupons accepted.,jennifer.guillaume@dc.gov _ 535-2252,Saturday,June,December,http://lickingcreekbendfarm.com/,,Jen,http://www.dcfoodfinder.org/,Fall 2017,15,396332.53,139389.45,284397,,FarmersMarketPt_23,{07D06A4E-9A70-4FCE-9FD6-7C8EA78D4749},,,DCGIS,2018/01/03 16:47:52+00,38.92237074,-77.04229257
-76.9948164107172,38.921038447677,Rhode Island Row Farmers' Market,Farmers Market,Local Business & Food,,2350 Washington Pl NE,,"Accepts SNAP, WIC, and senior farmers market nutrition program benefits; doubles SNAP, WIC, and senior farmers market nutrition program benefits up to $10; distributes Produce Plus",,,jennifer.guillaume@dc.gov _ 535-2252,Saturday,May,October,http://community-foodworks.org/farmers-markets,,Jen,http://www.dcfoodfinder.org/,Fall 2017,16,400449.71,139239.89,306519,,FarmersMarketPt_24,{1724C473-CE01-4791-976B-98828DA6D9A7},,,DCGIS,2018/01/03 16:47:52+00,38.92103099,-76.99481413
-77.0159779122894,38.9176252501544,Arcadia's Mobile Market and Common Good City Farm's Market at LeDroit Park,Farmers Market,Local Business & Food,,300 Elm St NW,,"Accepts SNAP, WIC and senior farmers market nutrition program; matching program for voucher customers; distributes Produce Plus checks.",,,jennifer.guillaume@dc.gov _ 535-2252,Wednesday,May,,http://arcadiafood.org/,,Jen,http://www.dcfoodfinder.org/,Fall 2017,17,398614.554500006,138861.104700003,,,FarmersMarketPt_25,{FCAD1DB1-90EA-4175-A70D-0492CC1CC6F1},,,DCGIS,2018/01/03 16:49:14+00,38.91761746,-77.01597562
-77.0959621251688,38.9174414084109,Palisades Farmers Market,Farmers Market,Local Business & Food,,4865 MacArthur Blvd NW,202-744-7077,"Accepts SNAP, WIC, senior farmers market nutrition program and Produce Plus benefits; $15 Matching dollars program for SNAP, WIC and senior farmers market nutrition program customers.",1,,jennifer.guillaume@dc.gov _ 535-2252,Sunday,YearRound,YearRound,http://palisadesfarmersmarket.com/,,Jen,http://www.dcfoodfinder.org/,Fall 2017,18,391678.11,138844.95,285004,,FarmersMarketPt_26,{DB17B921-9589-47CC-86E9-93DEBA54E279},,,DCGIS,2018/01/03 16:47:52+00,38.91743395,-77.09595982
-77.0324058130055,38.91745181656,14th & U Farmers' Market,Farmers Market,Local Business & Food,,2000 14th St NW,,"Accepts SNAP, WIC, senior farmers market nutrition program and FVRx benefits; Matching dollars program for SNAP, WIC and senior farmers market nutrition program customers; distributes Produce Plus checks. Bonus and Produce Plus begins June 4th.",,Locally grown fresh fruits and vegetables. April-Oct. Wednesday. WIC and Senior Nutrition coupons accepted.,jennifer.guillaume@dc.gov _ 535-2252,Saturday,May,November,http://marketsandmore.net/,,Jen,http://www.dcfoodfinder.org/,Fall 2017,19,397189.88,138842.23,239976,,FarmersMarketPt_27,{C9FBF49E-FCAF-403E-AE6D-FB12DE8C827D},,,DCGIS,2018/01/03 16:47:52+00,38.91744436,-77.03240353
-77.0686161905959,38.9155164871839,Glover Park-Burleith Farmers' Market,Farmers Market,Local Business & Food,,1819 35th St NW,,"Accepts SNAP, WIC and senior farmers market nutrition program benefits; matches SNAP, WIC and senior farmers market nutrition program benefits up to $10; distributes Produce Plus checks.",,,jennifer.guillaume@dc.gov _ 535-2252,Saturday,May,November,http://community-foodworks.org/farmers-markets,,Jen,http://www.dcfoodfinder.org/,Fall 2017,20,394049.46,138629.13,274432,,FarmersMarketPt_28,{54C6DB34-106D-4827-A324-702594212923},,,DCGIS,2018/01/03 16:47:52+00,38.91550903,-77.0686139
-76.9374752554905,38.9130680180128,Quarles St Farmers' Market/Kenilworth Farm Stand,Farmers Market,Local Business & Food,,4400 Quarles St NE,,,,,jennifer.guillaume@dc.gov _ 535-2252,Saturday,June,September,http://www.community-foodworks.org/farmers-market*,,Jen,http://www.dcfoodfinder.org/,Fall 2017,21,405422.84,138356.95,22522,,FarmersMarketPt_29,{A5DCE0F0-EF53-4231-B5D7-24355D624993},,,DCGIS,2018/01/03 16:47:52+00,38.91306056,-76.937473
-77.0123671025618,38.9127629435879,Bloomingdale Farmers' Market,Farmers Market,Local Business & Food,,1700 1st St NW,,"Accepts SNAP, WIC, senior farmers market nutrition program and FVRx benefits; Matching dollars program for SNAP, WIC and senior farmers market nutrition program customers; distributes Produce Plus checks. Bonus and Produce Plus begin June 4th.",1,Locally grown fresh fruits and vegetables. May-November. Sunday. WIC and Senior Nutrition coupons accepted.,jennifer.guillaume@dc.gov _ 535-2252,Sunday,May,November,http://marketsandmore.net/,,Jen,http://www.dcfoodfinder.org/,Fall 2017,22,398927.62,138321.3,218404,,FarmersMarketPt_30,{1236668B-76EE-42A9-BF75-21EC9CFE1656},,,DCGIS,2018/01/03 16:47:52+00,38.91275549,-77.01236481
-77.0249632399953,38.9121669212613,Shaw Farmers Market,Farmers Market,Local Business & Food,,925 Rhode Island Ave NW,,"Accepts SNAP, WIC, and senior farmers market nutrition program benefits; doubles SNAP, WIC, and senior farmers market nutrition program benefits up to $10; distributes Produce Plus",,,jennifer.guillaume@dc.gov _ 535-2252,Sunday,May,October,http://community-foodworks.org/farmers-markets,,Jen,http://www.dcfoodfinder.org/,Fall 2017,23,397835.16,138255.36,294503,,FarmersMarketPt_31,{6117E1E0-F0EB-4BBE-986E-BFF00CB1A66C},,,DCGIS,2018/01/03 16:47:52+00,38.91215947,-77.02496095
-77.0451901715755,38.9109380563368,Dupont Circle FRESHFARM Market,Farmers Market,Local Business & Food,farmsmkt_dupontcircle.jpg,1500 20th St NW,<Null>,"Accepts SNAP, WIC and senior farmers market nutrition program benefits; $15 Matching dollars program for SNAP, WIC and senior farmers market nutrition program customers; distributes Produce Plus checks.",1,Locally grown fresh fruits and vegetables. Year-round. Sunday. WIC and Senior Nutrition coupons accepted.,jennifer.guillaume@dc.gov _ 535-2252,Sunday,YearRound,,http://freshfarm.org/index.html,http://www.freshfarmmarket.org/,Jen,http://www.dcfoodfinder.org/,Fall 2017,24,396080.830000013,138119.620000005,,,FarmersMarketPt_32,{89EF5E23-460A-4E4C-9EBE-147D32F6C7AB},,,DCGIS,2018/01/03 16:49:15+00,38.91093027,-77.04518787
-77.0548912859027,38.9087481163516,Rose Park Farmers' Market,Farmers Market,Local Business & Food,,1404 26th St NW,202-333-4946,"Accepts SNAP, WIC and senior farmers market nutrition program benefits.",,Locally grown fresh fruits and vegetables. April-Oct. Wednesday. WIC and Senior Nutrition coupons accepted.,jennifer.guillaume@dc.gov _ 535-2252,Wednesday,May,October,https://www.roseparkdc.org/,,Jen,http://www.dcfoodfinder.org/,Fall 2017,25,395239.3,137876.98,274894,,FarmersMarketPt_33,{20906B12-7173-4DA3-AA98-600FAC0F01E8},,,DCGIS,2018/01/03 16:47:52+00,38.90874066,-77.054889
-76.932157842564,38.9084524186282,Arcadia's Mobile Market at Deanwood Recreation Center,Farmers Market,Local Business & Food,,1350 49th St. NE,,"Accepts SNAP, WIC and senior farmers market nutrition program; matching program for voucher customers; distributes Produce Plus checks.",,,jennifer.guillaume@dc.gov _ 535-2252,Friday,May,November,http://arcadiafood.org/,,Jen,http://www.dcfoodfinder.org/,Fall 2017,26,405884.39,137844.91,307551,,FarmersMarketPt_34,{D692D5BD-2250-4C84-8AC8-8EC29FC9D056},,,DCGIS,2018/01/03 16:47:52+00,38.90844496,-76.93215558
-77.0712586094446,38.9078267343858,Georgetown University Farmers' Market,Farmers Market,Local Business & Food,,3623 O St NW,,,,,jennifer.guillaume@dc.gov _ 535-2252,Wednesday,"March, September","May, November",http://gufarmersmarket.org/,,Jen,http://www.dcfoodfinder.org/,Fall 2017,27,393819.63,137775.68,272542,,FarmersMarketPt_35,{8CDB252D-6524-437D-950E-0548E903CCDA},,,DCGIS,2018/01/03 16:47:52+00,38.90781928,-77.07125632
-76.9516811901184,38.906065091609,Paradise Farmers' Market,Farmers Market,Local Business & Food,,3598 Hayes St NE,,,,,jennifer.guillaume@dc.gov _ 535-2252,Saturday,June,September,,,Jen,http://www.dcfoodfinder.org/,Fall 2017,28,404191.2,137578.82,295261,,FarmersMarketPt_36,{44E5E40C-0108-4F2F-9C8D-591BB980E16D},,,DCGIS,2018/01/03 16:47:52+00,38.90605763,-76.95167893
-76.9509730438664,38.9059325540033,Parkside Farm Stand,Farmers Market,Local Business & Food,,3517 Jay St NE,,"Accepts SNAP, WIC and senior farmers market nutrition program; unlimited matching program for voucher customers; distributes Produce Plus checks.",,,jennifer.guillaume@dc.gov _ 535-2252,Saturday,June,September,,,Jen,http://www.dcfoodfinder.org/,Fall 2017,29,404252.63,137564.14,295237,,FarmersMarketPt_37,{A9F8D483-DFBE-4B56-93FB-AE54105F06C9},,,DCGIS,2018/01/03 16:47:52+00,38.9059251,-76.95097079
-77.0381554361841,38.9051971130515,Orchard Country Produce Farm Stand at National Geographic,Farmers Market,Local Business & Food,,1145 17th St NW,,,,,jennifer.guillaume@dc.gov _ 535-2252,Tuesday,May,December,http://orchardcountryproduce.com/,,Jen,http://www.dcfoodfinder.org/,Fall 2017,30,396690.69,137482.05,290192,,FarmersMarketPt_38,{11250861-923E-4D02-B281-C3B1789F1FFD},,,DCGIS,2018/01/03 16:47:52+00,38.90518966,-77.03815314
-77.0629659424297,38.9037948549413,Georgetown FRESHFARM Market,Farmers Market,Local Business & Food,,1044 Wisconsin Ave NW,,,,,jennifer.guillaume@dc.gov _ 535-2252,Saturday,July,November,http://freshfarm.org/georgetown.html,,Jen,http://www.dcfoodfinder.org/,Fall 2017,31,394538.58,137327.58,278800,,FarmersMarketPt_39,{F5F35FBE-B2C5-4516-BA83-565C0FA3BBDF},,,DCGIS,2018/01/03 16:47:52+00,38.9037874,-77.06296365
-77.0266946769626,38.9015667739401,CityCenterDC FreshFarm Market,Farmers Market,Local Business & Food,,1098 New York Ave NW,,"Accepts SNAP, WIC and senior farmers market nutrition program benefits; $15 Matching dollars program for SNAP, WIC and senior farmers market nutrition program customers; distributes Produce Plus checks.",,,jennifer.guillaume@dc.gov _ 535-2252,Tuesday,May,,http://freshfarm.org/index.html,,Jen,http://www.dcfoodfinder.org/,Fall 2017,32,397684.649999999,137078.700000003,,,FarmersMarketPt_40,{61320039-94F8-43E0-A77D-25FC53898070},,,DCGIS,2018/01/03 16:49:15+00,38.90155899,-77.02669239
-77.049468795218,38.9014182789902,Foggy Bottom FRESHFARM Market,Farmers Market,Local Business & Food,farmsmkt_foggybottom.jpg,901 23rd St NW,<Null>,"Accepts SNAP, WIC and senior farmers market nutrition program benefits; $15 Matching dollars program for SNAP, WIC and senior farmers market nutrition program customers; distributes Produce Plus checks.",,Locally grown fresh fruits and vegetables. April-Nov. Wednesday. WIC and Senior Nutrition coupons accepted.,jennifer.guillaume@dc.gov _ 535-2252,Wednesday,April,November,http://freshfarm.org/index.html,http://www.freshfarmmarket.org/,Jen,http://www.dcfoodfinder.org/,Fall 2017,33,395709.17,137063.04,242383,,FarmersMarketPt_41,{3CA04EF2-F695-49F4-85AE-79997C3BB246},,,DCGIS,2018/01/03 16:47:52+00,38.90141083,-77.0494665
-77.018810716987,38.9012617821262,Mount Vernon Triangle FreshFarm Market,Farmers Market,Local Business & Food,,499 I St NW,,"Accepts SNAP, WIC and senior farmers market nutrition program benefits; $15 Matching dollars program for SNAP, WIC and senior farmers market nutrition program customers; distributes Produce Plus checks.",,,jennifer.guillaume@dc.gov _ 535-2252,Saturday,May,,http://freshfarmmarkets.org/,,Jen,http://www.dcfoodfinder.org/,Fall 2017,34,398368.512500003,137044.672500003,,,FarmersMarketPt_42,{3DB26430-4621-497A-8B2A-8DEC9A5848AB},,,DCGIS,2018/01/03 16:49:15+00,38.901254,-77.01880843
-77.0352299654147,38.9008304205192,White House FreshFarm Market,Farmers Market,Local Business & Food,,810 VERMONT AVENUE NW,,"Accepts SNAP, WIC and senior farmers market nutrition program benefits; $15 Matching dollars program for SNAP, WIC and senior farmers market nutrition program customers; distributes Produce Plus checks.",,,jennifer.guillaume@dc.gov _ 535-2252,Thursday,April,November,http://freshfarm.org/index.html,,Jen,http://www.dcfoodfinder.org/,Fall 2017,35,396944.25,136997.21,279954,,FarmersMarketPt_43,{8EAD0C3A-4F2C-448A-8BEA-1D3363BF3F36},,,DCGIS,2018/01/03 16:47:52+00,38.90082297,-77.03522768
-76.9468906133041,38.9007641169113,Arcadia's Mobile Market at Parkside Unity Clinic/Circle 7 Express,Farmers Market,Local Business & Food,,740 Kenilworth Terrace NE,,"Accepts SNAP, WIC and senior farmers market nutrition program; matching program for voucher customers; distributes Produce Plus checks.",,,jennifer.guillaume@dc.gov _ 535-2252,Tuesday,May,November,http://arcadiafood.org/,,Jen,http://www.dcfoodfinder.org/,Fall 2017,36,404607.06,136990.6,288937,,FarmersMarketPt_44,{0BC93CF0-EF8F-4867-A64E-DD5DA987E751},,,DCGIS,2018/01/03 16:47:52+00,38.90075666,-76.94688836
-76.9489859276045,38.900737566118,Kenilworth-Parkside Farmers' Market,Farmers Market,Local Business & Food,,750 Parkside Pl NE,,"Accepts SNAP, WIC and senior farmers market nutrition program; unlimited matching program for voucher customers; distributes Produce Plus checks.",,,jennifer.guillaume@dc.gov _ 535-2252,Saturday,June,,http://community-foodworks.org/,,Jen,http://www.dcfoodfinder.org/,Fall 2017,37,404425.308899991,136987.548900008,,,FarmersMarketPt_45,{B31DAABA-5CA8-4B41-8968-93C131291357},,,DCGIS,2018/01/03 16:49:15+00,38.90072978,-76.94898366
-76.9884406624678,38.9003193788422,H Street FreshFarm Market,Farmers Market,Local Business & Food,farmsmkt_hstreet.jpg,800 13th St NE,<Null>,"Accepts SNAP, WIC and senior farmers market nutrition program benefits; $15 Matching dollars program for SNAP, WIC and senior farmers market nutrition program customers; distributes Produce Plus checks.",1,Locally grown fresh fruits and vegetables. May-October. Saturday. WIC and Senior Nutrition coupons accepted.,jennifer.guillaume@dc.gov _ 535-2252,Saturday,April,,http://freshfarmmarkets.org/,http://www.freshfarmmarket.org/,Jen,http://www.dcfoodfinder.org/,Fall 2017,38,401002.894800007,136939.954200003,,,FarmersMarketPt_46,{07288D94-8DEF-4E9C-A57A-A5E07E4F860C},,,DCGIS,2018/01/03 16:49:15+00,38.90031159,-76.98843838
-77.0201916787645,38.9002361931034,Arcadia’s Mobile Market at Wah Luck House Chinatown,Farmers Market,Local Business & Food,,800 6th St NW,,"Accepts SNAP, WIC and senior farmers market nutrition program; matching program for voucher customers; distributes Produce Plus checks.",,,jennifer.guillaume@dc.gov _ 535-2252,Wednesday,May,October,http://arcadiafood.org/,,Jen,http://www.dcfoodfinder.org/,Fall 2017,39,398248.7,136930.85,279939,,FarmersMarketPt_47,{7113B510-E596-4B14-9F02-5ED872F6F510},,,DCGIS,2018/01/03 16:47:52+00,38.90022874,-77.02018939
-77.0230396544965,38.8975075736317,Penn Quarter FRESHFARM Market,Farmers Market,Local Business & Food,farmsmkt_pennquarter.jpg,801 F St NW,<Null>,"Accepts SNAP, WIC and senior farmers market nutrition program benefits; $15 Matching dollars program for SNAP, WIC and senior farmers market nutrition program customers; distributes Produce Plus checks.",,Locally grown fresh fruits and vegetables. April-Dec. Thurs. WIC and Senior Nutrition coupons accepted.,jennifer.guillaume@dc.gov _ 535-2252,Thursday,April,December,http://freshfarm.org/index.html,http://www.freshfarmmarket.org/,Jen,http://www.dcfoodfinder.org/,Fall 2017,40,398001.58,136628.01,301060,,FarmersMarketPt_48,{1CFCDE87-0B74-47F9-B3F4-C7A1A4634C49},,,DCGIS,2018/01/03 16:47:52+00,38.89750012,-77.02303736
-76.9701645800473,38.8974128901225,D.C. Open-Air Farmers' Market at RFK Stadium,Farmers Market,Local Business & Food,farmsmkt_RFKstadium.jpg,2651 Benning Rd NE,301-325-3762,Distributes Produce Plus checks.,,Locally grown fresh fruits and vegetables. Summer. WIC and Senior Nutrition coupons accepted.,jennifer.guillaume@dc.gov _ 535-2252,"Thursday, Saturday",YearRound,YearRound,,,Jen,http://www.dcfoodfinder.org/,Fall 2017,41,402588.33,136617.67,300608,,FarmersMarketPt_49,{768A8707-7C4C-4F70-8423-360669746B2D},,,DCGIS,2018/01/03 16:47:52+00,38.89740544,-76.97016232
-76.9257723655026,38.8973072688417,Riverside Center Market,Farmers Market,Local Business & Food,farmsmkt_riverside.jpg,601 Division Ave NE,<Null>,"Accepts SNAP, WIC and senior farmers market nutrition program benefits.",1,Locally grown fresh fruits and vegetables. Friday. WIC and Senior Nutrition coupons accepted.,jennifer.guillaume@dc.gov _ 535-2252,Saturday,,,http://www.dcurbangreens.org/,,Jen,http://www.dcfoodfinder.org/,Fall 2017,42,406439.23,136608.14,5742,,FarmersMarketPt_50,{669ACA04-BB70-44B5-8200-3BFE697A961B},,,DCGIS,2018/01/03 16:47:52+00,38.89729981,-76.92577012
-77.0302141600362,38.8949473818548,Capital Harvest on the Plaza,Farmers Market,Local Business & Food,,1300 Pennsylvania Ave NW,,Accepts WIC benefits.,,,jennifer.guillaume@dc.gov _ 535-2252,Friday,May,November,http://capitalharvestdc.com/,,Jen,http://www.dcfoodfinder.org/,Fall 2017,43,397379.12,136343.99,293198,,FarmersMarketPt_51,{B4E4F3CF-DD27-4ED8-80B4-4DBB1186D659},,,DCGIS,2018/01/03 16:47:52+00,38.89493993,-77.03021187
-76.951308433689,38.8939309440887,Minnesota Avenue - Benning Road Farmers' Market,Farmers Market,Local Business & Food,,3924 Minnesota Ave NE,,"Accepts SNAP, WIC, senior farmers market nutrition program and FVRx benefits; distributes Produce Plus checks.",,,jennifer.guillaume@dc.gov _ 535-2252,Thursday,June,October,http://dreamingoutloud.org/,,Jen,http://www.dcfoodfinder.org/,Fall 2017,44,404224.25,136231.85,288039,,FarmersMarketPt_52,{21876FC1-2935-45D1-823D-C642A78BA108},,,DCGIS,2018/01/03 16:47:52+00,38.89392349,-76.95130618
-76.9325574419462,38.89004369795,East Capitol Community Market,Farmers Market,Local Business & Food,,4900 East Capitol St NE,,"Accepts SNAP, WIC, senior farmers market nutrition program and FVRx benefits; distributes Produce Plus checks",,,jennifer.guillaume@dc.gov _ 535-2252,Wednesday,June,September,http://dreamingoutloud.org/programs/community-mar*,,Jen,http://www.dcfoodfinder.org/,Fall 2017,45,405851.24,135801.37,16521,,FarmersMarketPt_53,{B8F64388-9B13-4D93-AAFE-4C659F6257C1},,,DCGIS,2018/01/03 16:47:52+00,38.89003624,-76.93255519
-76.9158924479572,38.8894272539371,UDC East Capitol Farmers' Market,Farmers Market,Local Business & Food,,5901 East Capitol St SE,202-274-7148,"Distributes Produce Plus checks; some vendors may accept SNAP, WIC and senior farmers market nutrition program benefits",,Locally grown fresh fruits and vegetables. July-Nov. Saturday.,jennifer.guillaume@dc.gov _ 535-2252,Saturday,May,November,https://www.udc.edu/causes/,,Jen,http://www.dcfoodfinder.org/,Fall 2017,46,407297.09,135734.14,302595,,FarmersMarketPt_54,{314EBCE2-BBF9-4708-992A-E2E035A24949},,,DCGIS,2018/01/03 16:47:52+00,38.8894198,-76.9158902
-77.0300373257247,38.8867243121065,USDA Farmers Market,Farmers Market,Local Business & Food,,1400 Independence Ave SW,(800)384-8704,"Some vendors accept SNAP, WIC and senior farmers market nutrition program benefits; distributes Produce Plus checks.",,Locally grown fresh fruits and vegetables. Friday. WIC and Senior Nutrition coupons accepted.,jennifer.guillaume@dc.gov _ 535-2252,Friday,May,October,,,Jen,http://www.dcfoodfinder.org/,Fall 2017,47,397394.16,135431.16,291739,,FarmersMarketPt_55,{7DB4AE7C-C9B1-4C75-9339-A30AB48D6544},,,DCGIS,2018/01/03 16:47:52+00,38.88671686,-77.03003503
-76.9964707044583,38.8864205754983,Eastern Market Outdoor Farmers' Market,Farmers Market,Local Business & Food,farmsmkt_eastern.jpg,225 7th St SE,202-478-2429,"Accepts SNAP and WIC benefits; distributes Produce Plus checks.",1,DC's oldest continually operated fresh food public market. Year-round. Adjoining arts & crafts market.,jennifer.guillaume@dc.gov _ 535-2252,"Tuesday, Saturday, Sunday",YearRound,YearRound,http://easternmarket-dc.com/,www.goodgenerallink.org,Jen,http://www.dcfoodfinder.org/,Fall 2017,48,400306.4,135397.02,300829,,FarmersMarketPt_56,{AD7DAC68-8C8B-48D1-BEB9-D17BF6A193F2},,,DCGIS,2018/01/03 16:47:52+00,38.88641312,-76.99646843
-76.9871283052883,38.8839227956981,New Morning Farmers Market (Watkins School),Farmers Market,Local Business & Food,,1325 D St SE,814.448.3904,"Accepts SNAP, WIC and senior farmers market nutrition program benefits.",1,Locally grown fresh fruits and vegetables. Saturday. WIC and Senior Nutrition coupons accepted.,jennifer.guillaume@dc.gov _ 535-2252,Wednesday,June,August,http://newmorningfarm.net/markets,,Jen,http://www.dcfoodfinder.org/,Fall 2017,49,401116.99,135119.82,286053,,FarmersMarketPt_57,{9E54D978-F25E-4082-9759-195F35ED3A88},,,DCGIS,2018/01/03 16:47:52+00,38.88391501,-76.98712603
-77.0163637171089,38.8836031009287,Farm to Family/Bus Farm,Farmers Market,Local Business & Food,,355 E St SW,,Accepts SNAP benefits.,,,jennifer.guillaume@dc.gov _ 535-2252,Wednesday,April,December,http://thefarmbus.com/,,Jen,http://www.dcfoodfinder.org/,Fall 2017,50,398580.42,135084.38,307324,,FarmersMarketPt_58,{38F27DB9-C440-4D55-8419-04825983FDB4},,,DCGIS,2018/01/03 16:47:52+00,38.88359565,-77.01636143
-76.9493746340303,38.8825510061206,DC Urban Greens Farm Stand,Farmers Market,Local Business & Food,,3779 Ely Pl SE,,"Accepts SNAP, WIC and senior farmers market nutrition program benefits. Distributes Produce Plus checks.",,,jennifer.guillaume@dc.gov _ 535-2252,"Wednesday, Saturday",June,October,http://dcurbangreens.org/,,Jen,http://www.dcfoodfinder.org/,Fall 2017,51,404392.71,134968.68,301486,,FarmersMarketPt_59,{16481F98-B5B0-444A-86A5-85A86779A4F7},,,DCGIS,2018/01/03 16:47:52+00,38.88254355,-76.94937238
-76.9888778596312,38.8810920893942,People's Health Initiative Market,Farmers Market,Local Business & Food,,1229 G St SE,,,,,jennifer.guillaume@dc.gov _ 535-2252,Saturday,July,November,,,Jen,http://www.dcfoodfinder.org/,Fall 2017,52,400965.23,134805.57,290355,,FarmersMarketPt_60,{91E83BFD-63FC-448B-8B25-48BA0A63002F},,,DCGIS,2018/01/03 16:47:52+00,38.88108464,-76.98887559
-77.0013281593401,38.8768591166269,USDOT Farmers Market,Farmers Market,Local Business & Food,,300 M St SE,(202)366-0674,Accepts WIC and senior farmers market nutrition program benefits.,1,Seasonal produce direct from farmers. Tuesday.,jennifer.guillaume@dc.gov _ 535-2252,Tuesday,May,November,,,Jen,http://www.dcfoodfinder.org/,Fall 2017,53,399884.95,134335.62,289440,,FarmersMarketPt_61,{07727A37-BCEF-419F-A4AA-6101D9030998},,,DCGIS,2018/01/03 16:47:52+00,38.87685167,-77.00132589
-77.0184306840784,38.876816230917,Southwest DC Farmers Market,Farmers Market,Local Business & Food,,425 M St SW,,"Accepts SNAP, WIC, senior farmers market nutrition program and FVRx benefits; distributes Produce Plus checks.",,,jennifer.guillaume@dc.gov _ 535-2252,Saturday,May,November,,,Jen,http://www.dcfoodfinder.org/,Fall 2017,54,398400.93,134331.02,307293,,FarmersMarketPt_62,{7017C2D2-5260-4FB8-9C54-04031FBD1FC9},,,DCGIS,2018/01/03 16:47:52+00,38.87680878,-77.0184284
-77.0032259304134,38.8766976851501,Freshfarm Capitol Riverfront Farmers' Market,Farmers Market,Local Business & Food,,200 M St SE,, ,,,jennifer.guillaume@dc.gov _ 535-2252,Sunday,May,,http://freshfarm.org/index.html,,Jen,http://www.dcfoodfinder.org/,Fall 2017,55,399720.276699997,134317.703699999,,,FarmersMarketPt_1,{3BF0C3C7-C856-42F5-BED8-6DAC0FF34459},,,DCGIS,2018/01/03 16:49:15+00,38.8766899,-77.00322365
-76.9963056305733,38.8603328682015,Arcadia's Mobile Market at Barry Farm Recreation Center,Farmers Market,Local Business & Food,,1230 Sumner Rd SE,,"Accepts SNAP, WIC and senior farmers market nutrition program; matching program for voucher customers; distributes Produce Plus checks.",,,jennifer.guillaume@dc.gov _ 535-2252,Friday,May,October,http://arcadiafood.org/,,Jen,http://www.dcfoodfinder.org/,Fall 2017,56,400320.84,132501.09,285960,,FarmersMarketPt_2,{C6639414-E875-4258-9D55-0CABD3435FA1},,,DCGIS,2018/01/03 16:47:53+00,38.86032509,-76.99630335
-76.998241258726,38.842450628512,Ward 8 Farmers' Market,Farmers Market,Local Business & Food,farmsmkt_Ward8.jpg,3200 6th St SE,202.561.8204,"Accepts SNAP and Washington/Maryland WIC and seniors farmers market nutrition program benefits; distributes Produce Plus checks.",1,Locally grown fresh fruits and vegetables. Saturday. WIC and Senior Nutrition coupons accepted.,jennifer.guillaume@dc.gov _ 535-2252,Saturday,June,November,http://ward8farmersmarket.com/,,Jen,http://www.dcfoodfinder.org/,Fall 2017,57,400152.88,130516.03,294557,,FarmersMarketPt_3,{00E4FD87-A5F4-4E5C-9720-FDF808A3D3CB},,,DCGIS,2018/01/03 16:47:53+00,38.84244319,-76.99823899
-77.0037352966619,38.8399118203937,Arcadia's Mobile Market at Congress Heights Senior Wellness Center,Farmers Market,Local Business & Food,,3500 Martin Luther King Jr Ave SE,,"Accepts SNAP, WIC and senior farmers market nutrition program; matching program for voucher customers; distributes Produce Plus checks.",,,jennifer.guillaume@dc.gov _ 535-2252,Thursday,May,November,http://arcadiafood.org/,,Jen,http://www.dcfoodfinder.org/,Fall 2017,58,399675.91,130234.21,303598,,FarmersMarketPt_4,{E5BBCB0E-B677-4123-9F9A-7BD01E3BE308},,,DCGIS,2018/01/03 16:47:53+00,38.83990438,-77.00373303
-76.9840708203096,38.8363057900599,Arcadia's Mobile Market at United Medical Center,Farmers Market,Local Business & Food,,1310 Southern Ave SE,,"Accepts SNAP, WIC and senior farmers market nutrition program; matching program for voucher customers; distributes Produce Plus checks.",,,jennifer.guillaume@dc.gov _ 535-2252,Friday,May,October,http://arcadiafood.org/,,Jen,http://www.dcfoodfinder.org/,Fall 2017,59,401383.19,129834.03,277936,,FarmersMarketPt_5,{A568E8AA-A49B-44DE-91F6-A73B0F228736},,,DCGIS,2018/01/03 16:47:53+00,38.83629801,-76.98406855
-76.9943133766427,38.8358650536328,Arcadia's Mobile Market at the Overlook at Oxon Run,Farmers Market,Local Business & Food,,3700 9TH ST SE,,"Accepts SNAP, WIC and senior farmers market nutrition program; matching program for voucher customers; distributes Produce Plus checks.",,,jennifer.guillaume@dc.gov _ 535-2252,Tuesday,May,November,http://arcadiafood.org/,,Jen,http://www.dcfoodfinder.org/,Fall 2017,60,400493.92,129785,278421,,FarmersMarketPt_6,{D467B922-0F75-4E04-A32E-6EAD45F952B1},,,DCGIS,2018/01/03 16:47:53+00,38.83585761,-76.99431111
-77.0093671861083,38.8313332896664,Arcadia's Mobile Market at Community of Hope/Bellevue Neighborhood Library,Farmers Market,Local Business & Food,,115 Atlantic St SW,,"Accepts SNAP, WIC and senior farmers market nutrition program; matching program for voucher customers; distributes Produce Plus checks.",,,jennifer.guillaume@dc.gov _ 535-2252,Thursday,May,November,http://arcadiafood.org/,,Jen,http://www.dcfoodfinder.org/,Fall 2017,61,399186.87,129281.97,302935,,FarmersMarketPt_7,{982FC347-5DEA-4AB2-AD5A-CAFDB68E19A1},,,DCGIS,2018/01/03 16:47:53+00,38.83132585,-77.0093649
-76.9991871134438,38.8289933534677,Arcadia's Mobile Market at Hendley Elementary School,Farmers Market,Local Business & Food,,425 Chesapeake St SE,,"Accepts SNAP, WIC and senior farmers market nutrition program; matching program for voucher customers; distributes Produce Plus checks.",,,jennifer.guillaume@dc.gov _ 535-2252,Wednesday,May,October,http://arcadiafood.org/,,Jen,http://www.dcfoodfinder.org/,Fall 2017,62,400070.78,129022.18,24445,,FarmersMarketPt_8,{E9EB2040-ADD0-4C92-A4ED-253C3FB8FC91},,,DCGIS,2018/01/03 16:47:53+00,38.82898591,-76.99918485
